QZS-1R                  
1 49336U 21096A   24122.23319594 -.00000193  00000+0  00000+0 0  9992
2 49336  35.8497  91.2384 0753396 270.5857  76.9831  1.00275014  9213
